[{"OBJECT_NAME":"STARLINK-36636","OBJECT_ID":"2026-018Y","EPOCH":"2026-03-09T22:00:01.999584","MEAN_MOTION":15.64464953,"ECCENTRICITY":0.00019144,"INCLINATION":97.2844,"RA_OF_ASC_NODE":134.7932,"ARG_OF_PERICENTER":72.5464,"MEAN_ANOMALY":54.5572,"EPHEMERIS_TYPE":0,"CLASSIFICATION_TYPE":"U","NORAD_CAT_ID":67611,"ELEMENT_SET_NO":999,"REV_AT_EPOCH":604,"BSTAR":-0.023080936,"MEAN_MOTION_DOT":-0.01954126,"MEAN_MOTION_DDOT":0},{"OBJECT_NAME":"OBJECT E","OBJECT_ID":"2021-091E","EPOCH":"2026-03-09T22:43:30.874368","MEAN_MOTION":15.58552335,"ECCENTRICITY":0.00052438,"INCLINATION":97.3949,"RA_OF_ASC_NODE":285.5924,"ARG_OF_PERICENTER":328.2739,"MEAN_ANOMALY":31.82,"EPHEMERIS_TYPE":0,"CLASSIFICATION_TYPE":"U","NORAD_CAT_ID":49319,"ELEMENT_SET_NO":999,"REV_AT_EPOCH":24586,"BSTAR":0.0004489926,"MEAN_MOTION_DOT":0.00034337,"MEAN_MOTION_DDOT":0}]
